CANX-4                  
1 40055U 14034C   24254.61179495  .00004724  00000+0  65249-3 0  9990
2 40055  98.3898  92.9271 0012148 279.6136  80.3701 14.78581780549175
CANX-5                  
1 40056U 14034D   24254.61641001  .00004816  00000+0  66494-3 0  9993
2 40056  98.3900  92.9396 0012126 279.7277  80.2563 14.78591957539981
UKUBE-1                 
1 40074U 14037F   24254.88632011  .00020628  00000+0  18356-2 0  9998
2 40074  98.3418 190.2014 0005800 130.8350 229.3373 14.96087547551584
BRITE-PL2 (HEWELIUSZ)   
1 40119U 14049B   24254.81758013  .00007982  00000+0  83666-3 0  9990
2 40119  97.8840 354.1501 0016603  83.7729 276.5379 14.89722757545324
AEROCUBE 5C             
1 40965U 15058B   24254.82361423  .00007443  00000+0  65668-3 0  9990
2 40965  64.7689  98.5312 0192077 282.2241  75.7416 14.83957808269742
AEROCUBE 7              
1 40966U 15058C   24254.79016714  .00009439  00000+0  79549-3 0  9997
2 40966  64.7668  91.5583 0186455 281.8371  76.1881 14.86119846269820
FOX-1A (AO-85)          
1 40967U 15058D   24254.85141298  .00007605  00000+0  68424-3 0  9994
2 40967  64.7766 112.6320 0190809 278.0074  79.9422 14.83377139 17696
SINOD-D 1               
1 40968U 15058E   24254.83528258  .00009713  00000+0  83255-3 0  9999
2 40968  64.7768 104.5796 0184821 276.9631  81.0488 14.85682936 20538
SNAP-3 ALICE            
1 40970U 15058G   24254.82581783  .00037003  00000+0  23166-2 0  9990
2 40970  64.7705  56.4234 0151834 274.8849  83.4947 15.00065414 18616
LMRST-SAT               
1 40971U 15058H   24254.82984397  .00007657  00000+0  68726-3 0  9993
2 40971  64.7762 108.2414 0192105 279.4376  78.5064 14.83302526 17698
SNAP-3 EDDIE            
1 40972U 15058J   24254.81471837  .00035181  00000+0  21768-2 0  9990
2 40972  64.7681  49.6913 0152108 275.8847  82.4949 15.00458239 20719
PROPCUBE 3              
1 40973U 15058K   24254.94849646  .00009338  00000+0  79996-3 0  9994
2 40973  64.7705  94.8689 0188409 280.7322  77.2626 14.85291028 18764
BISONSAT                
1 40974U 15058L   24254.81448745  .00022371  00000+0  15975-2 0  9994
2 40974  64.7673  66.3784 0167379 278.3709  79.8460 14.93860806 18549
SNAP-3 JIMI             
1 40975U 15058M   24251.75290515  .00014000  00000+0  11120-2 0  9993
2 40975  64.7684  91.4453 0179584 280.5941  77.4987 14.88835900 17311
PROPCUBE 1 (FLORA)      
1 40976U 15058N   24254.82379861  .00007990  00000+0  74382-3 0  9997
2 40976  64.7751 124.1611 0190433 280.6850  77.2866 14.82123417 20486
SINOD-D 3               
1 40977U 15058P   24254.82624116  .00009739  00000+0  86549-3 0  9995
2 40977  64.7742 116.5928 0184249 279.8038  78.2310 14.84429661 18731
HORYU-4                 
1 41340U 16012D   24254.03484278  .00033185  00000+0  14954-2 0  9999
2 41340  30.9998 141.4104 0007116 112.7569 247.3825 15.19860149471055
RAVAN                   
1 41849U 16067B   24254.49506322  .00024610  00000+0  12475-2 0  9997
2 41849  98.0677  77.3738 0013035  97.7002 262.5710 15.16883024428901
CELTEE 1                
1 41850U 16067C   24254.73616437  .00015550  00000+0  10054-2 0  9999
2 41850  98.1096  68.7654 0000109 190.5870 169.5354 15.08303438428315
OPTICUBE 04             
1 41851U 16067D   24254.89151779  .00010573  00000+0  77128-3 0  9996
2 41851  98.0846  63.5127 0018162 128.1141 232.1724 15.03773059428113
AEROCUBE 8D             
1 41852U 16067E   24254.91408781  .00018576  00000+0  11498-2 0  9996
2 41852  98.1135  68.9450 0004866 173.8807 186.2481 15.09852009428327
AEROCUBE 8C             
1 41853U 16067F   24254.73093017  .00019239  00000+0  11904-2 0  9998
2 41853  98.0958  67.1202 0008193 109.7125 250.4987 15.09839456428285
PROMETHEUS 2-1          
1 41854U 16067G   24254.93394980  .00042888  00000+0  18863-2 0  9991
2 41854  98.1026  76.2328 0011359 123.9771 236.2544 15.21688878428753
PROMETHEUS 2-3          
1 41855U 16067H   24254.47227334  .00045918  00000+0  20259-2 0  9998
2 41855  98.0959  75.1416 0009768 135.7448 224.4568 15.21578723428681
CORVUS BC2              
1 42846U 17042X   24254.47892494  .00010168  00000+0  84546-3 0  9997
2 42846  97.3778  74.9009 0008587 123.3346 236.8701 14.98859991390211
CORVUS BC1              
1 42847U 17042Y   24254.76491492  .00010776  00000+0  89225-3 0  9997
2 42847  97.3749  75.5845 0008220 128.4799 231.7163 14.99011175390274
MIRATA                  
1 43015U 17073C   24254.48640823  .00054166  00000+0  22391-2 0  9993
2 43015  97.5803 138.4727 0152989 329.2165  30.0159 15.13675307369207
MAKERSAT 0              
1 43016U 17073D   24254.63137476  .00035553  00000+0  18935-2 0  9994
2 43016  97.5595 131.3451 0183507 353.7460   6.1474 15.01725147368727
GOMX-4B                 
1 43196U 18015E   24254.76959944  .00340414  00000+0  12503-2 0  9996
2 43196  97.6010  76.1064 0005967 315.1871  44.8917 15.87438629368974
SIRION PATHFINDER-2     
1 43759U 18099B   24254.68607602  .00014175  00000+0  10194-2 0  9991
2 43759  97.5215 308.4650 0010514   5.9409 354.1940 15.04305028315354
CORVUS BC4              
1 43767U 18099K   24254.69533178  .00013347  00000+0  98236-3 0  9991
2 43767  97.5037 305.4152 0010731  57.5500 302.6762 15.03443968315237
MOVE-II                 
1 43780U 18099Y   24254.44439857  .00062717  00000+0  27535-2 0  9996
2 43780  97.5119 316.8996 0005584  52.8434 307.3311 15.21682027315861
SPACEBEE-7              
1 43816U 18099BL  24254.63742999  .00035890  00000+0  18873-2 0  9998
2 43816  97.5398 317.4630 0008303 359.1045   1.0171 15.15540918315334
SPACEBEE-6              
1 43818U 18099BN  24254.77568750  .00095322  00000+0  29149-2 0  9990
2 43818  97.5304 324.7104 0005692 334.0246  26.0710 15.33464438315971
SHIELDS 1               
1 43850U 18104B   24254.67415556  .00035493  00000+0  84580-3 0  9991
2 43850  85.0210 224.9379 0013954 107.2194 253.0587 15.41323526319319
SONATE                  
1 44400U 19038Q   24254.58042827  .00049774  00000+0  12485-2 0  9998
2 44400  97.7162 252.8150 0016508 151.9023 208.3117 15.39730845287194
LUCKY-7                 
1 44406U 19038W   24254.96362708  .00113482  00000+0  16151-2 0  9991
2 44406  97.7028 258.8754 0014601 132.5310 227.7179 15.55841287287647
DUCHIFAT-3              
1 44854U 19089C   24254.68674428  .00039041  00000+0  17296-2 0  9997
2 44854  36.9544 248.4605 0005186 126.7094 233.4131 15.20726001261275
M2 PATHFINDER           
1 45727U 20037E   24254.44228827  .00010947  00000+0  92543-3 0  9997
2 45727  97.7823  70.5052 0010867 190.1674 169.9330 14.98197724228704
NETSAT-4                
1 46504U 20068U   24254.46221233  .00024588  00000+0  12136-2 0  9996
2 46504  97.8128 214.0833 0012091  76.3761 283.8818 15.17823111217097
NETSAT-3                
1 46505U 20068V   24254.41445826  .00025908  00000+0  12994-2 0  9997
2 46505  97.8107 213.4315 0011750  83.7436 276.5134 15.17255559217078
NETSAT-1                
1 46506U 20068W   24254.83268841  .00020047  00000+0  10703-2 0  9999
2 46506  97.8131 213.1115 0010435  90.3616 269.8811 15.15118540217088
NETSAT-2                
1 46507U 20068X   24254.87768699  .00025050  00000+0  12365-2 0  9995
2 46507  97.8114 214.1183 0009902  93.9733 266.2632 15.17838361217109
WILDTRACKCUBE-SIMBA     
1 47941U 21022K   24254.91148714  .00031570  00000+0  12513-2 0  9993
2 47941  97.4469 151.0559 0013641 191.9260 168.1657 15.25250137191517
GRBALPHA                
1 47959U 21022AD  24254.86703215  .00049470  00000+0  16128-2 0  9993
2 47959  97.4466 153.5250 0012640 178.1931 181.9359 15.31570514190497
BCCSAT-1                
1 48041U 21022AK  24254.72714354  .00958991  38984-3  31272-2 0  9997
2 48041  97.4361 166.3466 0013363 136.0606 224.1732 15.90566743191287
BEESAT-8                
1 48085U 21022AP  24254.69953281  .00074061  00000+0  18143-2 0  9998
2 48085  97.4672 158.0395 0011751 159.0463 201.1266 15.40409113191003
LEDSAT                  
1 49069U 21073D   24254.78220903  .00038862  00000+0  13515-2 0  9992
2 49069  97.4290 325.5466 0016464 343.0582  17.0107 15.29481962169513
ROBUSTA-1F (MTCUBE 2)   
1 53109U 22080E   24254.07187824 -.00000003  00000+0  00000+0 0  9996
2 53109  70.1280 162.6132 0007993  68.8711 291.2803  6.42584017 50612
SITRO-AIS 5 (KATYS)     
1 57176U 23091L   24254.87352191  .00020313  00000+0  12230-2 0  9992
2 57176  97.6042 306.3983 0017309 183.6138 176.4970 15.10714535 66422
SITRO-AIS 6 (CHIRKIN)   
1 57192U 23091AC  24254.92179564  .00019287  00000+0  11603-2 0  9998
2 57192  97.6036 306.4759 0017116 183.7099 176.4006 15.10757715 66436
SITRO-AIS 8 (ANOKHIN)   
1 57193U 23091AD  24254.93405690  .00021772  00000+0  12917-2 0  9993
2 57193  97.6037 306.6036 0016844 183.9551 176.1548 15.11241444 66447
SITRO-AIS 7 (FARTUSHNIY)
1 57194U 23091AE  24254.92977544  .00019319  00000+0  11643-2 0  9994
2 57194  97.6037 306.4574 0017003 183.8797 176.2303 15.10694858 66431
SITRO-AIS 10 (BURDAEV)  
1 57199U 23091AK  24254.92952827  .00022845  00000+0  12828-2 0  9990
2 57199  97.6049 307.7660 0012493 170.5951 189.5516 15.13268117 66512
SITRO-AIS 9 (SHCHUKIN)  
1 57201U 23091AM  24254.92909057  .00023188  00000+0  13031-2 0  9999
2 57201  97.6046 307.7380 0012451 170.5740 189.5727 15.13236021 66515
SITRO-AIS 12 (SMIRENNIY)
1 57204U 23091AQ  24254.88064599  .00024037  00000+0  13431-2 0  9998
2 57204  97.6057 307.8552 0012454 164.9083 195.2522 15.13433215 66513
SITRO-AIS 11 (SHEFFER)  
1 57208U 23091AU  24254.92699326  .00022594  00000+0  12587-2 0  9996
2 57208  97.6050 307.9348 0012285 165.3552 194.8037 15.13555723 66528
ROBUSTA-1E (ENSO)       
1 58470U 23185J   24254.88873205  .00038870  00000+0  14289-2 0  9992
2 58470  97.4172 320.9007 0010485 339.5012  20.5805 15.27740401 43208
